SITRO-AIS-63            
1 67294U 25313AY  26023.58905485  .00016300  00000+0  71813-3 0  9991
2 67294  97.4096 100.6589 0010364 139.3724 220.8287 15.21849673  3960
ZORKIY-2M-5             
1 67295U 25313AZ  26023.58935609  .00012784  00000+0  56508-3 0  9999
2 67295  97.4088 100.6539 0011867 130.6466 229.5804 15.21776891  3965
SITRO-AIS-62            
1 67296U 25313BA  26023.45670310  .00015963  00000+0  70238-3 0  9999
2 67296  97.4101 100.5321 0010136 140.2629 219.9352 15.21899234  3942
SITRO-AIS-61            
1 67297U 25313BB  26023.58720174  .00016968  00000+0  74497-3 0  9995
2 67297  97.4102 100.6629 0009828 141.6920 218.5016 15.21964036  3968
TIANHUI 7               
1 67300U 25314A   26020.93104818  .00004960  00000+0  19817-3 0  9992
2 67300  97.4187  97.9671 0001561 100.1824 259.9591 15.25587940  3337
CZ-4B R/B               
1 67301U 25314B   26023.65025742  .00151899  90156-5  69030-3 0  9996
2 67301  97.3710 102.1333 0133004 286.2510  72.4155 15.71673266  3803
SHIJIAN-29A (SJ-29A)    
1 67302U 25315A   26023.75167542 -.00000052  00000+0  00000+0 0  9990
2 67302   3.0308  98.9445 0001422 298.6244  69.1330  1.00270948   178
CZ-7A R/B               
1 67303U 25315B   26023.60177756  .00074316 -53908-6  22516-2 0  9998
2 67303  19.5937  90.5580 7179537 197.2624 111.9637  2.45311067   582
CSG-3                   
1 67304U 26001A   26023.59334468  .00000838  00000+0  11083-3 0  9998
2 67304  97.8450 209.3211 0001603  86.0825 274.0572 14.82518809  3042
STARLINK-36490          
1 67305U 26002A   26023.60325802  .00386561  00000+0  23926-2 0  9992
2 67305  42.9989 223.3674 0003155 275.6414  84.4095 15.75167241  4209
STARLINK-36488          
1 67306U 26002B   26023.60292129  .00426027  00000+0  26232-2 0  9993
2 67306  42.9991 223.3657 0004166 295.0357  65.0080 15.75173254  4142
STARLINK-36481          
1 67307U 26002C   26023.60224525  .00426385  00000+0  26109-2 0  9999
2 67307  42.9983 223.3601 0002398 238.9883 121.0751 15.75301271  4148
