CCSDS_OMM_VERS = 2.0
CREATION_DATE  = 
ORIGINATOR     = 

OBJECT_NAME    = SITRO-AIS-63
OBJECT_ID      = 2025-313AY
CENTER_NAME    = EARTH
REF_FRAME      = TEME
TIME_SYSTEM    = UTC
MEAN_ELEMENT_THEORY = SGP/SGP4

EPOCH          = 2026-01-23T14:08:14.339040
MEAN_MOTION    = 15.21849673
ECCENTRICITY   = .00103647
INCLINATION    = 97.4096
RA_OF_ASC_NODE = 100.6589
ARG_OF_PERICENTER = 139.3724
MEAN_ANOMALY   = 220.8287

EPHEMERIS_TYPE = 0
CLASSIFICATION_TYPE = U
NORAD_CAT_ID   = 67294
ELEMENT_SET_NO = 999
REV_AT_EPOCH   = 396
BSTAR          = .71812987E-3
MEAN_MOTION_DOT = .163E-3
MEAN_MOTION_DDOT = 0

CCSDS_OMM_VERS = 2.0
CREATION_DATE  = 
ORIGINATOR     = 

OBJECT_NAME    = ZORKIY-2M-5
OBJECT_ID      = 2025-313AZ
CENTER_NAME    = EARTH
REF_FRAME      = TEME
TIME_SYSTEM    = UTC
MEAN_ELEMENT_THEORY = SGP/SGP4

EPOCH          = 2026-01-23T14:08:40.366176
MEAN_MOTION    = 15.21776891
ECCENTRICITY   = .00118678
INCLINATION    = 97.4088
RA_OF_ASC_NODE = 100.6539
ARG_OF_PERICENTER = 130.6466
MEAN_ANOMALY   = 229.5804

EPHEMERIS_TYPE = 0
CLASSIFICATION_TYPE = U
NORAD_CAT_ID   = 67295
ELEMENT_SET_NO = 999
REV_AT_EPOCH   = 396
BSTAR          = .5650808E-3
MEAN_MOTION_DOT = .12784E-3
MEAN_MOTION_DDOT = 0

CCSDS_OMM_VERS = 2.0
CREATION_DATE  = 
ORIGINATOR     = 

OBJECT_NAME    = SITRO-AIS-62
OBJECT_ID      = 2025-313BA
CENTER_NAME    = EARTH
REF_FRAME      = TEME
TIME_SYSTEM    = UTC
MEAN_ELEMENT_THEORY = SGP/SGP4

EPOCH          = 2026-01-23T10:57:39.147840
MEAN_MOTION    = 15.21899234
ECCENTRICITY   = .00101366
INCLINATION    = 97.4101
RA_OF_ASC_NODE = 100.5321
ARG_OF_PERICENTER = 140.2629
MEAN_ANOMALY   = 219.9352

EPHEMERIS_TYPE = 0
CLASSIFICATION_TYPE = U
NORAD_CAT_ID   = 67296
ELEMENT_SET_NO = 999
REV_AT_EPOCH   = 394
BSTAR          = .7023812E-3
MEAN_MOTION_DOT = .15963E-3
MEAN_MOTION_DDOT = 0

CCSDS_OMM_VERS = 2.0
CREATION_DATE  = 
ORIGINATOR     = 

OBJECT_NAME    = SITRO-AIS-61
OBJECT_ID      = 2025-313BB
CENTER_NAME    = EARTH
REF_FRAME      = TEME
TIME_SYSTEM    = UTC
MEAN_ELEMENT_THEORY = SGP/SGP4

EPOCH          = 2026-01-23T14:05:34.230336
MEAN_MOTION    = 15.21964036
ECCENTRICITY   = .00098282
INCLINATION    = 97.4102
RA_OF_ASC_NODE = 100.6629
ARG_OF_PERICENTER = 141.6920
MEAN_ANOMALY   = 218.5016

EPHEMERIS_TYPE = 0
CLASSIFICATION_TYPE = U
NORAD_CAT_ID   = 67297
ELEMENT_SET_NO = 999
REV_AT_EPOCH   = 396
BSTAR          = .74497136E-3
MEAN_MOTION_DOT = .16968E-3
MEAN_MOTION_DDOT = 0

CCSDS_OMM_VERS = 2.0
CREATION_DATE  = 
ORIGINATOR     = 

OBJECT_NAME    = TIANHUI 7
OBJECT_ID      = 2025-314A
CENTER_NAME    = EARTH
REF_FRAME      = TEME
TIME_SYSTEM    = UTC
MEAN_ELEMENT_THEORY = SGP/SGP4

EPOCH          = 2026-01-20T22:20:42.562752
MEAN_MOTION    = 15.25587940
ECCENTRICITY   = .00015619
INCLINATION    = 97.4187
RA_OF_ASC_NODE = 97.9671
ARG_OF_PERICENTER = 100.1824
MEAN_ANOMALY   = 259.9591

EPHEMERIS_TYPE = 0
CLASSIFICATION_TYPE = U
NORAD_CAT_ID   = 67300
ELEMENT_SET_NO = 999
REV_AT_EPOCH   = 333
BSTAR          = .19816833E-3
MEAN_MOTION_DOT = .496E-4
MEAN_MOTION_DDOT = 0

CCSDS_OMM_VERS = 2.0
CREATION_DATE  = 
ORIGINATOR     = 

OBJECT_NAME    = CZ-4B R/B
OBJECT_ID      = 2025-314B
CENTER_NAME    = EARTH
REF_FRAME      = TEME
TIME_SYSTEM    = UTC
MEAN_ELEMENT_THEORY = SGP/SGP4

EPOCH          = 2026-01-23T15:36:22.241088
MEAN_MOTION    = 15.71673266
ECCENTRICITY   = .01330049
INCLINATION    = 97.3710
RA_OF_ASC_NODE = 102.1333
ARG_OF_PERICENTER = 286.2510
MEAN_ANOMALY   = 72.4155

EPHEMERIS_TYPE = 0
CLASSIFICATION_TYPE = U
NORAD_CAT_ID   = 67301
ELEMENT_SET_NO = 999
REV_AT_EPOCH   = 380
BSTAR          = .69029577E-3
MEAN_MOTION_DOT = .151899E-2
MEAN_MOTION_DDOT = .9015576E-5

CCSDS_OMM_VERS = 2.0
CREATION_DATE  = 
ORIGINATOR     = 

OBJECT_NAME    = SHIJIAN-29A (SJ-29A)
OBJECT_ID      = 2025-315A
CENTER_NAME    = EARTH
REF_FRAME      = TEME
TIME_SYSTEM    = UTC
MEAN_ELEMENT_THEORY = SGP/SGP4

EPOCH          = 2026-01-23T18:02:24.756288
MEAN_MOTION    = 1.00270948
ECCENTRICITY   = .0001422
INCLINATION    = 3.0308
RA_OF_ASC_NODE = 98.9445
ARG_OF_PERICENTER = 298.6244
MEAN_ANOMALY   = 69.1330

EPHEMERIS_TYPE = 0
CLASSIFICATION_TYPE = U
NORAD_CAT_ID   = 67302
ELEMENT_SET_NO = 999
REV_AT_EPOCH   = 17
BSTAR          = 0
MEAN_MOTION_DOT = -.52E-6
MEAN_MOTION_DDOT = 0

CCSDS_OMM_VERS = 2.0
CREATION_DATE  = 
ORIGINATOR     = 

OBJECT_NAME    = CZ-7A R/B
OBJECT_ID      = 2025-315B
CENTER_NAME    = EARTH
REF_FRAME      = TEME
TIME_SYSTEM    = UTC
MEAN_ELEMENT_THEORY = SGP/SGP4

EPOCH          = 2026-01-23T14:26:33.581184
MEAN_MOTION    = 2.45311067
ECCENTRICITY   = .71795375
INCLINATION    = 19.5937
RA_OF_ASC_NODE = 90.5580
ARG_OF_PERICENTER = 197.2624
MEAN_ANOMALY   = 111.9637

EPHEMERIS_TYPE = 0
CLASSIFICATION_TYPE = U
NORAD_CAT_ID   = 67303
ELEMENT_SET_NO = 999
REV_AT_EPOCH   = 58
BSTAR          = .22515688E-2
MEAN_MOTION_DOT = .74316E-3
MEAN_MOTION_DDOT = -.539077E-6

CCSDS_OMM_VERS = 2.0
CREATION_DATE  = 
ORIGINATOR     = 

OBJECT_NAME    = CSG-3
OBJECT_ID      = 2026-001A
CENTER_NAME    = EARTH
REF_FRAME      = TEME
TIME_SYSTEM    = UTC
MEAN_ELEMENT_THEORY = SGP/SGP4

EPOCH          = 2026-01-23T14:14:24.980352
MEAN_MOTION    = 14.82518809
ECCENTRICITY   = .00016039
INCLINATION    = 97.8450
RA_OF_ASC_NODE = 209.3211
ARG_OF_PERICENTER = 86.0825
MEAN_ANOMALY   = 274.0572

EPHEMERIS_TYPE = 0
CLASSIFICATION_TYPE = U
NORAD_CAT_ID   = 67304
ELEMENT_SET_NO = 999
REV_AT_EPOCH   = 304
BSTAR          = .11082581E-3
MEAN_MOTION_DOT = .838E-5
MEAN_MOTION_DDOT = 0

CCSDS_OMM_VERS = 2.0
CREATION_DATE  = 
ORIGINATOR     = 

OBJECT_NAME    = STARLINK-36490
OBJECT_ID      = 2026-002A
CENTER_NAME    = EARTH
REF_FRAME      = TEME
TIME_SYSTEM    = UTC
MEAN_ELEMENT_THEORY = SGP/SGP4

EPOCH          = 2026-01-23T14:28:41.492928
MEAN_MOTION    = 15.75167241
ECCENTRICITY   = .00031556
INCLINATION    = 42.9989
RA_OF_ASC_NODE = 223.3674
ARG_OF_PERICENTER = 275.6414
MEAN_ANOMALY   = 84.4095

EPHEMERIS_TYPE = 0
CLASSIFICATION_TYPE = U
NORAD_CAT_ID   = 67305
ELEMENT_SET_NO = 999
REV_AT_EPOCH   = 420
BSTAR          = .23925577E-2
MEAN_MOTION_DOT = .386561E-2
MEAN_MOTION_DDOT = 0

CCSDS_OMM_VERS = 2.0
CREATION_DATE  = 
ORIGINATOR     = 

OBJECT_NAME    = STARLINK-36488
OBJECT_ID      = 2026-002B
CENTER_NAME    = EARTH
REF_FRAME      = TEME
TIME_SYSTEM    = UTC
MEAN_ELEMENT_THEORY = SGP/SGP4

EPOCH          = 2026-01-23T14:28:12.399456
MEAN_MOTION    = 15.75173254
ECCENTRICITY   = .00041661
INCLINATION    = 42.9991
RA_OF_ASC_NODE = 223.3657
ARG_OF_PERICENTER = 295.0357
MEAN_ANOMALY   = 65.0080

EPHEMERIS_TYPE = 0
CLASSIFICATION_TYPE = U
NORAD_CAT_ID   = 67306
ELEMENT_SET_NO = 999
REV_AT_EPOCH   = 414
BSTAR          = .26231677E-2
MEAN_MOTION_DOT = .426027E-2
MEAN_MOTION_DDOT = 0

CCSDS_OMM_VERS = 2.0
CREATION_DATE  = 
ORIGINATOR     = 

OBJECT_NAME    = STARLINK-36481
OBJECT_ID      = 2026-002C
CENTER_NAME    = EARTH
REF_FRAME      = TEME
TIME_SYSTEM    = UTC
MEAN_ELEMENT_THEORY = SGP/SGP4

EPOCH          = 2026-01-23T14:27:13.989600
MEAN_MOTION    = 15.75301271
ECCENTRICITY   = .00023988
INCLINATION    = 42.9983
RA_OF_ASC_NODE = 223.3601
ARG_OF_PERICENTER = 238.9883
MEAN_ANOMALY   = 121.0751

EPHEMERIS_TYPE = 0
CLASSIFICATION_TYPE = U
NORAD_CAT_ID   = 67307
ELEMENT_SET_NO = 999
REV_AT_EPOCH   = 414
BSTAR          = .26109393E-2
MEAN_MOTION_DOT = .426385E-2
MEAN_MOTION_DDOT = 0

